satname,norad_id,inclination_deg,eccentricity,mean_motion_rev_per_day,perigee_km,apogee_km,l1,l2
STARLINK-1540,46051,53.1595,0.0001151,15.30197423,474.43394217879086,476.0115855964377,1 46051U 20055AA  26115.71056049  .00000532  00000+0  30071-4 0  9999,2 46051  53.1595 255.4353 0001151  85.5996 274.5136 15.30197423316286
STARLINK-1541,46052,53.1586,0.0001565,15.61125882,383.34536395372834,385.4620391933204,1 46052U 20055AB  26116.00003472  .00960195  00000+0  10250-1 0  9999,2 46052  53.1586 251.8259 0001565  72.7944 226.1516 15.61125882  5770
STARLINK-1543,46053,53.1599,8.91e-05,15.31730382,470.0392026907339,471.2596564324822,1 46053U 20055AC  26115.76724421  .00007720  00000+0  26004-3 0  9998,2 46053  53.1599 255.1914 0000891  80.5027 279.6075 15.31730382316288
STARLINK-1548,46054,53.1587,9.06e-05,15.30191767,474.61873585888225,475.86056770818595,1 46054U 20055AD  26115.71373270  .00000121  00000+0  16196-4 0  9996,2 46054  53.1587 255.4887 0000906  95.5218 264.5886 15.30191767316272
STARLINK-1554,46055,53.1607,3.78e-05,15.31695555,470.4943575201096,471.0121336226748,1 46055U 20055AE  26115.76259819  .00001445  00000+0  58297-4 0  9992,2 46055  53.1607 255.2302 0000378  65.1525 294.9515 15.31695555316285
STARLINK-1564,46058,53.1601,0.0001074,15.30196459,474.48959107966675,475.9616933752177,1 46058U 20055AH  26115.70958843 -.00000889  00000+0 -17907-4 0  9998,2 46058  53.1601 255.9651 0001074  79.7348 280.3774 15.30196459316266
STARLINK-1570,46059,53.1587,0.0001039,15.31718594,469.97297547899416,471.39616060083335,1 46059U 20055AJ  26116.00003472 -.00008315  00000+0 -25633-3 0  9998,2 46059  53.1587 254.0097 0001039  69.3816   6.5308 15.31718594  5863
STARLINK-1572,46060,53.1582,0.0001355,15.30207967,474.2626555144525,476.11990747873824,1 46060U 20055AK  26115.82121870  .00001051  00000+0  47600-4 0  9999,2 46060  53.1582 255.1953 0001355  78.4012 281.7141 15.30207967316259
STARLINK-1573,46061,53.1584,0.0001029,15.31702108,470.02896259834324,471.4384601907477,1 46061U 20055AL  26115.90706119  .00004585  00000+0  15940-3 0  9990,2 46061  53.1584 254.4085 0001029  82.7985 277.3133 15.31702108316301
STARLINK-1577,46063,53.1589,8.52e-05,15.3171986,470.0972749626735,471.2643135148128,1 46063U 20055AN  26115.86976890  .00003189  00000+0  11441-3 0  9993,2 46063  53.1589 254.5763 0000852  88.0146 272.0953 15.31719860316296
STARLINK-1583,46064,53.1585,6.27e-05,15.3017934,474.84704810682615,475.70646619197305,1 46064U 20055AP  26115.65472508 -.00006043  00000+0 -19222-3 0  9997,2 46064  53.1585 255.7151 0000627  71.5998 288.5071 15.30179340316250
STARLINK-1536,46070,53.1499,6.11e-05,15.29368644,477.27958142766875,478.1173645224653,1 46070U 20055AV  26115.81347933  .00001177  00000+0  53075-4 0  9991,2 46070  53.1499 242.6592 0000611  73.4094 286.6973 15.29368644316453
STARLINK-1542,46073,53.0915,0.0001193,15.16010535,517.0896678307827,518.7350652096338,1 46073U 20055AY  26116.00003472  .00038369  00000+0  19788-2 0  9997,2 46073  53.0915 243.9797 0001193 103.7043 134.8028 15.16010535  5758
STARLINK-1549,46074,53.0509,8.21e-05,15.26230727,486.5286456585254,487.65591630646304,1 46074U 20055AZ  26115.75865569  .00034775  00000+0  13324-2 0  9999,2 46074  53.0509 242.4146 0000821 351.4504   8.6480 15.26230727316439
STARLINK-1551,46075,53.1572,0.0001141,15.29355707,476.9548805613358,478.5193910391263,1 46075U 20055BA  26115.63353050  .00003637  00000+0  13830-3 0  9990,2 46075  53.1572 242.9928 0001141  64.4279 295.6839 15.29355707316424
STARLINK-1552,46076,53.1601,0.0001233,15.30198252,474.3752696835245,476.0653075909022,1 46076U 20055BB  26115.78268338  .00002301  00000+0  89781-4 0  9997,2 46076  53.1601 242.2333 0001233 121.0773 239.0349 15.30198252316433
STARLINK-1559,46077,53.0248,0.0001254,15.34233539,462.3401386977466,464.0559455263083,1 46077U 20055BC  26115.59643312  .00038805  00000+0  11597-2 0  9992,2 46077  53.0248 214.7841 0001254 292.6160  67.4708 15.34233539316777
STARLINK-1566,46079,53.1592,8.26e-05,15.3154623,470.63265884033444,471.764169050718,1 46079U 20055BE  26116.00003472  .00059934  00000+0  19369-2 0  9999,2 46079  53.1592 241.2271 0000826  87.7823 288.0593 15.31546230  5755
STARLINK-1568,46080,53.0589,0.0004464,15.50438739,412.41149269914695,418.4768019474768,1 46080U 20055BF  26115.54687343  .00066592  00000+0  11481-2 0  9999,2 46080  53.0589 168.7175 0004464 318.0678  41.9988 15.50438739317450
STARLINK-1578,46082,53.1487,0.0001279,15.29353804,476.8659560207079,478.6196900794439,1 46082U 20055BH  26115.66432157  .00002776  00000+0  10850-3 0  9999,2 46082  53.1487 243.1993 0001279  91.0903 269.0244 15.29353804316425
STARLINK-1579,46083,53.159,0.0001101,15.30628739,473.18081771501784,474.6896440202536,1 46083U 20055BJ  26115.72667345  .00154806  00000+0  50634-2 0  9991,2 46083  53.1590 242.5490 0001101 127.4977 232.6125 15.30628739316434
STARLINK-1593,46119,53.0347,0.0004259,16.01198078,268.2679119939039,273.9317319188467,1 46119U 20057C   26115.95150485  .00680902  22436-3  12161-2 0  9995,2 46119  53.0347  31.2775 0004259 176.0151 184.0914 16.01198078315479
STARLINK-1621,46127,53.0322,0.0008038,16.16600412,223.48760482093985,234.10891394392274,1 46127U 20057L   26116.11387912  .01613685  22765-2  10918-2 0  9997,2 46127  53.0322   1.8612 0008038 242.3570 117.6651 16.16600412314638
STARLINK-1622,46128,53.0207,5.4e-05,15.73018342,349.9128042618331,350.63947288079817,1 46128U 20057M   26115.84441810  .00113651  00000+0  80936-3 0  9995,2 46128  53.0207 351.3687 0000540  12.7863 347.3168 15.73018342314766
STARLINK-1623,46129,53.046,0.0001589,15.66783017,367.0437126455272,369.1876717511077,1 46129U 20057N   26116.00003472 -.00002001  00000+0 -13363-4 0  9992,2 46129  53.0460  26.2211 0001589 103.9569  10.2918 15.66783017  5901
STARLINK-1624,46130,53.0369,0.0006434,15.8549692,310.61957961436565,319.23221294930045,1 46130U 20057P   26116.00003472  .00322332  00000+0  12669-2 0  9990,2 46130  53.0369 356.3113 0006434 161.7241  30.5023 15.85496920  5998
STARLINK-1596,46141,53.0392,0.0001854,15.52321671,408.69088201818613,411.20790445279727,1 46141U 20057AA  26115.85880330  .00076430  00000+0  12299-2 0  9994,2 46141  53.0392   4.8633 0001854 154.8795 205.2304 15.52321671314581
STARLINK-1597,46142,53.0445,0.0004422,15.66246417,366.67258549675626,372.64033403257145,1 46142U 20057AB  26115.56516243  .00081541  00000+0  77267-3 0  9998,2 46142  53.0445  68.0108 0004422  28.7817 331.3441 15.66246417313668
